SPAWAR-CAL-R            
1 43776U 18099U   26067.65115975  .00003570  00000+0  25336-3 0  9990
2 43776  97.4524 111.5817 0019701 348.9052  11.1737 15.05212097396878
STARLINK-4024           
1 52599U 22052B   26068.81406372  .00001183  00000+0  92431-4 0  9999
2 52599  53.2165 278.6679 0001267  89.5333 270.5804 15.08830158211678
